{"type": "FeatureCollection", "features": [{"type": "Feature", "properties": {"norad_id": 28054, "name": "DMSP 5D-3 F16 (USA 172)", "group": "weather", "lat": -43.80827865073329, "lon": 172.3030549927681, "alt_km": 852.2309935543681, "timestamp": "2025-12-09T14:52:25.807911+00:00", "meta": {"OBJECT_NAME": "DMSP 5D-3 F16 (USA 172)", "OBJECT_ID": "2003-048A", "EPOCH": "2025-12-09T07:04:33.365568", "MEAN_MOTION": 14.14422488, "ECCENTRICITY": 0.00066204, "INCLINATION": 99.0048, "RA_OF_ASC_NODE": 0.7247, "ARG_OF_PERICENTER": 331.575, "MEAN_ANOMALY": 39.3974, "EPHEMERIS_TYPE": 0, "CLASSIFICATION_TYPE": "U", "NORAD_CAT_ID": 28054, "ELEMENT_SET_NO": 999, "REV_AT_EPOCH": 14264, "BSTAR": 0.00015013128, "MEAN_MOTION_DOT": 2.42e-06, "MEAN_MOTION_DDOT": 0}, "tle": {"line1": "1 28054U 03048A   25343.29483062  .00000242  00000+0  15013-3 0  9995", "line2": "2 28054  99.0048   0.7247 0006620 331.5750  39.3974 14.14422488142649"}}, "geometry": {"type": "Point", "coordinates": [172.3030549927681, -43.80827865073329]}}, {"type": "Feature", "properties": {"norad_id": 28912, "name": "METEOSAT-9 (MSG-2)", "group": "weather", "lat": -8.317625476243062, "lon": -12.364435734449906, "alt_km": 35789.54145906691, "timestamp": "2025-12-09T14:52:25.807964+00:00", "meta": {"OBJECT_NAME": "METEOSAT-9 (MSG-2)", "OBJECT_ID": "2005-049B", "EPOCH": "2025-12-08T20:40:05.248704", "MEAN_MOTION": 1.00274262, "ECCENTRICITY": 0.000384, "INCLINATION": 8.931, "RA_OF_ASC_NODE": 56.0124, "ARG_OF_PERICENTER": 190.0622, "MEAN_ANOMALY": 187.4345, "EPHEMERIS_TYPE": 0, "CLASSIFICATION_TYPE": "U", "NORAD_CAT_ID": 28912, "ELEMENT_SET_NO": 999, "REV_AT_EPOCH": 509, "BSTAR": 0, "MEAN_MOTION_DOT": 1.23e-06, "MEAN_MOTION_DDOT": 0}, "tle": {"line1": "1 28912U 05049B   25342.86117186  .00000123  00000+0  00000+0 0  9998", "line2": "2 28912   8.9310  56.0124 0003840 190.0622 187.4345  1.00274262  5098"}}, "geometry": {"type": "Point", "coordinates": [-12.364435734449906, -8.317625476243062]}}, {"type": "Feature", "properties": {"norad_id": 29522, "name": "DMSP 5D-3 F17 (USA 191)", "group": "weather", "lat": 20.36882774643664, "lon": 172.34776491900948, "alt_km": 840.8210586545802, "timestamp": "2025-12-09T14:52:25.807983+00:00", "meta": {"OBJECT_NAME": "DMSP 5D-3 F17 (USA 191)", "OBJECT_ID": "2006-050A", "EPOCH": "2025-12-09T07:20:02.270112", "MEAN_MOTION": 14.14917476, "ECCENTRICITY": 0.00092845, "INCLINATION": 98.7393, "RA_OF_ASC_NODE": 348.7662, "ARG_OF_PERICENTER": 235.4913, "MEAN_ANOMALY": 124.5385, "EPHEMERIS_TYPE": 0, "CLASSIFICATION_TYPE": "U", "NORAD_CAT_ID": 29522, "ELEMENT_SET_NO": 999, "REV_AT_EPOCH": 98556, "BSTAR": 0.00018594711, "MEAN_MOTION_DOT": 3.16e-06, "MEAN_MOTION_DDOT": 0}, "tle": {"line1": "1 29522U 06050A   25343.30558183  .00000316  00000+0  18595-3 0  9991", "line2": "2 29522  98.7393 348.7662 0009284 235.4913 124.5385 14.14917476985562"}}, "geometry": {"type": "Point", "coordinates": [172.34776491900948, 20.36882774643664]}}, {"type": "Feature", "properties": {"norad_id": 32958, "name": "FENGYUN 3A", "group": "weather", "lat": -1.8986253081662454, "lon": 102.92250426876501, "alt_km": 834.5046704956512, "timestamp": "2025-12-09T14:52:25.807997+00:00", "meta": {"OBJECT_NAME": "FENGYUN 3A", "OBJECT_ID": "2008-026A", "EPOCH": "2025-12-09T07:15:10.162080", "MEAN_MOTION": 14.19512945, "ECCENTRICITY": 0.00080521, "INCLINATION": 98.6694, "RA_OF_ASC_NODE": 282.9015, "ARG_OF_PERICENTER": 321.2366, "MEAN_ANOMALY": 38.8232, "EPHEMERIS_TYPE": 0, "CLASSIFICATION_TYPE": "U", "NORAD_CAT_ID": 32958, "ELEMENT_SET_NO": 999, "REV_AT_EPOCH": 90846, "BSTAR": 0.00013357221, "MEAN_MOTION_DOT": 2.38e-06, "MEAN_MOTION_DDOT": 0}, "tle": {"line1": "1 32958U 08026A   25343.30220095  .00000238  00000+0  13357-3 0  9995", "line2": "2 32958  98.6694 282.9015 0008052 321.2366  38.8232 14.19512945908460"}}, "geometry": {"type": "Point", "coordinates": [102.92250426876501, -1.8986253081662454]}}, {"type": "Feature", "properties": {"norad_id": 35491, "name": "GOES 14", "group": "weather", "lat": 1.1234656880550222, "lon": -166.6156114994002, "alt_km": 35773.895568612985, "timestamp": "2025-12-09T14:52:25.808011+00:00", "meta": {"OBJECT_NAME": "GOES 14", "OBJECT_ID": "2009-033A", "EPOCH": "2025-12-09T07:25:58.798848", "MEAN_MOTION": 1.00273188, "ECCENTRICITY": 0.00040415, "INCLINATION": 1.1907, "RA_OF_ASC_NODE": 85.4474, "ARG_OF_PERICENTER": 154.8483, "MEAN_ANOMALY": 201.2008, "EPHEMERIS_TYPE": 0, "CLASSIFICATION_TYPE": "U", "NORAD_CAT_ID": 35491, "ELEMENT_SET_NO": 999, "REV_AT_EPOCH": 468, "BSTAR": 0, "MEAN_MOTION_DOT": -6.6e-07, "MEAN_MOTION_DDOT": 0}, "tle": {"line1": "1 35491U 09033A   25343.30970832 -.00000066  00000+0  00000+0 0  9997", "line2": "2 35491   1.1907  85.4474 0004041 154.8483 201.2008  1.00273188  4687"}}, "geometry": {"type": "Point", "coordinates": [-166.6156114994002, 1.1234656880550222]}}, {"type": "Feature", "properties": {"norad_id": 35951, "name": "DMSP 5D-3 F18 (USA 210)", "group": "weather", "lat": 27.86676159065783, "lon": -44.706970267362735, "alt_km": 835.3932656469469, "timestamp": "2025-12-09T14:52:25.808024+00:00", "meta": {"OBJECT_NAME": "DMSP 5D-3 F18 (USA 210)", "OBJECT_ID": "2009-057A", "EPOCH": "2025-12-09T06:15:15.400224", "MEAN_MOTION": 14.14766161, "ECCENTRICITY": 0.00121059, "INCLINATION": 98.8831, "RA_OF_ASC_NODE": 319.6789, "ARG_OF_PERICENTER": 71.8313, "MEAN_ANOMALY": 288.4177, "EPHEMERIS_TYPE": 0, "CLASSIFICATION_TYPE": "U", "NORAD_CAT_ID": 35951, "ELEMENT_SET_NO": 999, "REV_AT_EPOCH": 83273, "BSTAR": 0.0002654526, "MEAN_MOTION_DOT": 4.67e-06, "MEAN_MOTION_DDOT": 0}, "tle": {"line1": "1 35951U 09057A   25343.26059491  .00000467  00000+0  26545-3 0  9998", "line2": "2 35951  98.8831 319.6789 0012105  71.8313 288.4177 14.14766161832734"}}, "geometry": {"type": "Point", "coordinates": [-44.706970267362735, 27.86676159065783]}}, {"type": "Feature", "properties": {"norad_id": 36411, "name": "EWS-G2 (GOES 15)", "group": "weather", "lat": -0.7928911624153413, "lon": 3.2143399133199146, "alt_km": 35792.95591778774, "timestamp": "2025-12-09T14:52:25.808037+00:00", "meta": {"OBJECT_NAME": "EWS-G2 (GOES 15)", "OBJECT_ID": "2010-008A", "EPOCH": "2025-12-09T05:18:19.101024", "MEAN_MOTION": 1.00268911, "ECCENTRICITY": 0.00059383, "INCLINATION": 0.8053, "RA_OF_ASC_NODE": 86.0556, "ARG_OF_PERICENTER": 173.3341, "MEAN_ANOMALY": 319.8428, "EPHEMERIS_TYPE": 0, "CLASSIFICATION_TYPE": "U", "NORAD_CAT_ID": 36411, "ELEMENT_SET_NO": 999, "REV_AT_EPOCH": 5773, "BSTAR": 0, "MEAN_MOTION_DOT": 4e-07, "MEAN_MOTION_DDOT": 0}, "tle": {"line1": "1 36411U 10008A   25343.22105441  .00000040  00000+0  00000+0 0  9992", "line2": "2 36411   0.8053  86.0556 0005938 173.3341 319.8428  1.00268911 57735"}}, "geometry": {"type": "Point", "coordinates": [3.2143399133199146, -0.7928911624153413]}}, {"type": "Feature", "properties": {"norad_id": 36744, "name": "COMS 1", "group": "weather", "lat": -0.5925860570080096, "lon": 69.9194214566953, "alt_km": 35790.64309489152, "timestamp": "2025-12-09T14:52:25.808051+00:00", "meta": {"OBJECT_NAME": "COMS 1", "OBJECT_ID": "2010-032A", "EPOCH": "2025-12-08T23:09:51.522624", "MEAN_MOTION": 1.0027117, "ECCENTRICITY": 0.00011352, "INCLINATION": 4.3321, "RA_OF_ASC_NODE": 78.0387, "ARG_OF_PERICENTER": 200.7728, "MEAN_ANOMALY": 274.7928, "EPHEMERIS_TYPE": 0, "CLASSIFICATION_TYPE": "U", "NORAD_CAT_ID": 36744, "ELEMENT_SET_NO": 999, "REV_AT_EPOCH": 4918, "BSTAR": 0, "MEAN_MOTION_DOT": -3.43e-06, "MEAN_MOTION_DDOT": 0}, "tle": {"line1": "1 36744U 10032A   25342.96517966 -.00000343  00000+0  00000+0 0  9994", "line2": "2 36744   4.3321  78.0387 0001135 200.7728 274.7928  1.00271170 49188"}}, "geometry": {"type": "Point", "coordinates": [69.9194214566953, -0.5925860570080096]}}, {"type": "Feature", "properties": {"norad_id": 37214, "name": "FENGYUN 3B", "group": "weather", "lat": -7.373296962931398, "lon": 24.748847204543587, "alt_km": 831.238156461126, "timestamp": "2025-12-09T14:52:25.808063+00:00", "meta": {"OBJECT_NAME": "FENGYUN 3B", "OBJECT_ID": "2010-059A", "EPOCH": "2025-12-09T06:50:47.689152", "MEAN_MOTION": 14.14787251, "ECCENTRICITY": 0.00222678, "INCLINATION": 98.9906, "RA_OF_ASC_NODE": 23.2382, "ARG_OF_PERICENTER": 7.6126, "MEAN_ANOMALY": 82.5198, "EPHEMERIS_TYPE": 0, "CLASSIFICATION_TYPE": "U", "NORAD_CAT_ID": 37214, "ELEMENT_SET_NO": 999, "REV_AT_EPOCH": 78057, "BSTAR": 2.134127e-05, "MEAN_MOTION_DOT": -4e-08, "MEAN_MOTION_DDOT": 0}, "tle": {"line1": "1 37214U 10059A   25343.28527418 -.00000004  00000+0  21341-4 0  9995", "line2": "2 37214  98.9906  23.2382 0022267   7.6126  82.5198 14.14787251780571"}}, "geometry": {"type": "Point", "coordinates": [24.748847204543587, -7.373296962931398]}}, {"type": "Feature", "properties": {"norad_id": 37849, "name": "SUOMI NPP", "group": "weather", "lat": 38.785950194781016, "lon": 108.1213750660294, "alt_km": 822.545554230077, "timestamp": "2025-12-09T14:52:25.808074+00:00", "meta": {"OBJECT_NAME": "SUOMI NPP", "OBJECT_ID": "2011-061A", "EPOCH": "2025-12-09T07:26:50.007264", "MEAN_MOTION": 14.19512791, "ECCENTRICITY": 0.00021349, "INCLINATION": 98.7769, "RA_OF_ASC_NODE": 280.6829, "ARG_OF_PERICENTER": 126.132, "MEAN_ANOMALY": 234.0054, "EPHEMERIS_TYPE": 0, "CLASSIFICATION_TYPE": "U", "NORAD_CAT_ID": 37849, "ELEMENT_SET_NO": 999, "REV_AT_EPOCH": 73150, "BSTAR": 0.00012413587, "MEAN_MOTION_DOT": 2.17e-06, "MEAN_MOTION_DDOT": 0}, "tle": {"line1": "1 37849U 11061A   25343.31030101  .00000217  00000+0  12414-3 0  9990", "line2": "2 37849  98.7769 280.6829 0002134 126.1320 234.0054 14.19512791731503"}}, "geometry": {"type": "Point", "coordinates": [108.1213750660294, 38.785950194781016]}}]}